[{"OBJECT_NAME":"STARLINK-35122","OBJECT_ID":"2025-198U","EPOCH":"2026-03-07T14:40:57.836928","MEAN_MOTION":15.30220516,"ECCENTRICITY":0.00016128,"INCLINATION":53.1568,"RA_OF_ASC_NODE":280.5229,"ARG_OF_PERICENTER":105.4972,"MEAN_ANOMALY":254.6207,"EPHEMERIS_TYPE":0,"CLASSIFICATION_TYPE":"U","NORAD_CAT_ID":65510,"ELEMENT_SET_NO":999,"REV_AT_EPOCH":2830,"BSTAR":0.0010174006,"MEAN_MOTION_DOT":0.00029914,"MEAN_MOTION_DDOT":0},{"OBJECT_NAME":"STARLINK-35124","OBJECT_ID":"2025-198V","EPOCH":"2026-03-07T14:22:43.751136","MEAN_MOTION":15.30227674,"ECCENTRICITY":0.00026363,"INCLINATION":53.1579,"RA_OF_ASC_NODE":280.4468,"ARG_OF_PERICENTER":108.7798,"MEAN_ANOMALY":251.3489,"EPHEMERIS_TYPE":0,"CLASSIFICATION_TYPE":"U","NORAD_CAT_ID":65511,"ELEMENT_SET_NO":999,"REV_AT_EPOCH":2829,"BSTAR":0.0010452047,"MEAN_MOTION_DOT":0.00030753,"MEAN_MOTION_DDOT":0},{"OBJECT_NAME":"STARLINK-35149","OBJECT_ID":"2025-198W","EPOCH":"2026-03-07T14:13:36.770016","MEAN_MOTION":15.30214534,"ECCENTRICITY":0.00016178,"INCLINATION":53.158,"RA_OF_ASC_NODE":280.4053,"ARG_OF_PERICENTER":94.5874,"MEAN_ANOMALY":265.5312,"EPHEMERIS_TYPE":0,"CLASSIFICATION_TYPE":"U","NORAD_CAT_ID":65512,"ELEMENT_SET_NO":999,"REV_AT_EPOCH":2830,"BSTAR":0.00059574191,"MEAN_MOTION_DOT":0.00017334,"MEAN_MOTION_DDOT":0},{"OBJECT_NAME":"STARLINK-35019","OBJECT_ID":"2025-198X","EPOCH":"2026-03-06T23:42:58.948992","MEAN_MOTION":15.30216982,"ECCENTRICITY":7.044e-5,"INCLINATION":53.1587,"RA_OF_ASC_NODE":283.7401,"ARG_OF_PERICENTER":79.4047,"MEAN_ANOMALY":280.7033,"EPHEMERIS_TYPE":0,"CLASSIFICATION_TYPE":"U","NORAD_CAT_ID":65513,"ELEMENT_SET_NO":999,"REV_AT_EPOCH":2820,"BSTAR":0.0015025375,"MEAN_MOTION_DOT":0.00044431,"MEAN_MOTION_DDOT":0},{"OBJECT_NAME":"STARLINK-35026","OBJECT_ID":"2025-198Y","EPOCH":"2026-03-07T14:10:44.335488","MEAN_MOTION":15.30219563,"ECCENTRICITY":0.00018869,"INCLINATION":53.157,"RA_OF_ASC_NODE":281.1037,"ARG_OF_PERICENTER":91.1674,"MEAN_ANOMALY":268.9543,"EPHEMERIS_TYPE":0,"CLASSIFICATION_TYPE":"U","NORAD_CAT_ID":65514,"ELEMENT_SET_NO":999,"REV_AT_EPOCH":2829,"BSTAR":0.0012276662,"MEAN_MOTION_DOT":0.00036201,"MEAN_MOTION_DDOT":0},{"OBJECT_NAME":"STARLINK-35241","OBJECT_ID":"2025-198Z","EPOCH":"2026-03-07T13:41:51.709632","MEAN_MOTION":15.30215151,"ECCENTRICITY":0.00012348,"INCLINATION":53.1584,"RA_OF_ASC_NODE":280.978,"ARG_OF_PERICENTER":113.8546,"MEAN_ANOMALY":246.2585,"EPHEMERIS_TYPE":0,"CLASSIFICATION_TYPE":"U","NORAD_CAT_ID":65515,"ELEMENT_SET_NO":999,"REV_AT_EPOCH":2829,"BSTAR":0.0011815183,"MEAN_MOTION_DOT":0.00034814,"MEAN_MOTION_DDOT":0},{"OBJECT_NAME":"STARLINK-35216","OBJECT_ID":"2025-198AA","EPOCH":"2026-03-07T15:25:02.020800","MEAN_MOTION":15.30230425,"ECCENTRICITY":0.00010868,"INCLINATION":53.1603,"RA_OF_ASC_NODE":280.7121,"ARG_OF_PERICENTER":77.1001,"MEAN_ANOMALY":283.0121,"EPHEMERIS_TYPE":0,"CLASSIFICATION_TYPE":"U","NORAD_CAT_ID":65516,"ELEMENT_SET_NO":999,"REV_AT_EPOCH":2830,"BSTAR":0.0012063702,"MEAN_MOTION_DOT":0.00035575,"MEAN_MOTION_DDOT":0},{"OBJECT_NAME":"STARLINK-35228","OBJECT_ID":"2025-198AB","EPOCH":"2026-03-07T14:33:20.738592","MEAN_MOTION":15.30257048,"ECCENTRICITY":3.291e-5,"INCLINATION":53.1584,"RA_OF_ASC_NODE":280.4928,"ARG_OF_PERICENTER":339.4958,"MEAN_ANOMALY":20.6029,"EPHEMERIS_TYPE":0,"CLASSIFICATION_TYPE":"U","NORAD_CAT_ID":65517,"ELEMENT_SET_NO":999,"REV_AT_EPOCH":2830,"BSTAR":0.0014196562,"MEAN_MOTION_DOT":0.00041999,"MEAN_MOTION_DDOT":0},{"OBJECT_NAME":"STARLINK-35232","OBJECT_ID":"2025-198AC","EPOCH":"2026-03-07T00:17:46.392000","MEAN_MOTION":15.30217975,"ECCENTRICITY":0.00012302,"INCLINATION":53.1596,"RA_OF_ASC_NODE":283.1769,"ARG_OF_PERICENTER":113.0609,"MEAN_ANOMALY":247.0522,"EPHEMERIS_TYPE":0,"CLASSIFICATION_TYPE":"U","NORAD_CAT_ID":65518,"ELEMENT_SET_NO":999,"REV_AT_EPOCH":2821,"BSTAR":0.0009022164,"MEAN_MOTION_DOT":0.00026472,"MEAN_MOTION_DDOT":0},{"OBJECT_NAME":"STARLINK-35164","OBJECT_ID":"2025-198AD","EPOCH":"2026-03-07T14:28:48.436032","MEAN_MOTION":15.30228378,"ECCENTRICITY":0.00026809,"INCLINATION":53.1582,"RA_OF_ASC_NODE":280.4704,"ARG_OF_PERICENTER":106.681,"MEAN_ANOMALY":253.4485,"EPHEMERIS_TYPE":0,"CLASSIFICATION_TYPE":"U","NORAD_CAT_ID":65519,"ELEMENT_SET_NO":999,"REV_AT_EPOCH":2830,"BSTAR":0.0012123473,"MEAN_MOTION_DOT":0.00035753,"MEAN_MOTION_DDOT":0},{"OBJECT_NAME":"STARLINK-35112","OBJECT_ID":"2025-200A","EPOCH":"2026-03-07T04:57:58.491072","MEAN_MOTION":15.05663015,"ECCENTRICITY":9.08e-5,"INCLINATION":97.6025,"RA_OF_ASC_NODE":137.2926,"ARG_OF_PERICENTER":91.3655,"MEAN_ANOMALY":268.7676,"EPHEMERIS_TYPE":0,"CLASSIFICATION_TYPE":"U","NORAD_CAT_ID":65520,"ELEMENT_SET_NO":999,"REV_AT_EPOCH":2875,"BSTAR":0.00059664,"MEAN_MOTION_DOT":8.561e-5,"MEAN_MOTION_DDOT":0},{"OBJECT_NAME":"STARLINK-35187","OBJECT_ID":"2025-200B","EPOCH":"2026-03-07T15:16:01.836768","MEAN_MOTION":15.05673473,"ECCENTRICITY":2.033e-5,"INCLINATION":97.6042,"RA_OF_ASC_NODE":137.8003,"ARG_OF_PERICENTER":72.7816,"MEAN_ANOMALY":287.3433,"EPHEMERIS_TYPE":0,"CLASSIFICATION_TYPE":"U","NORAD_CAT_ID":65521,"ELEMENT_SET_NO":999,"REV_AT_EPOCH":2882,"BSTAR":0.00044943224,"MEAN_MOTION_DOT":6.434e-5,"MEAN_MOTION_DDOT":0},{"OBJECT_NAME":"STARLINK-35188","OBJECT_ID":"2025-200C","EPOCH":"2026-03-07T14:52:07.540608","MEAN_MOTION":15.05665237,"ECCENTRICITY":4.343e-5,"INCLINATION":97.6026,"RA_OF_ASC_NODE":137.8233,"ARG_OF_PERICENTER":19.8265,"MEAN_ANOMALY":340.2979,"EPHEMERIS_TYPE":0,"CLASSIFICATION_TYPE":"U","NORAD_CAT_ID":65522,"ELEMENT_SET_NO":999,"REV_AT_EPOCH":2882,"BSTAR":0.00056443478,"MEAN_MOTION_DOT":8.096e-5,"MEAN_MOTION_DDOT":0},{"OBJECT_NAME":"STARLINK-35078","OBJECT_ID":"2025-200D","EPOCH":"2026-03-07T04:34:03.553824","MEAN_MOTION":15.05654922,"ECCENTRICITY":8.934e-5,"INCLINATION":97.6027,"RA_OF_ASC_NODE":137.3162,"ARG_OF_PERICENTER":98.7108,"MEAN_ANOMALY":261.422,"EPHEMERIS_TYPE":0,"CLASSIFICATION_TYPE":"U","NORAD_CAT_ID":65523,"ELEMENT_SET_NO":999,"REV_AT_EPOCH":2875,"BSTAR":0.0003196689,"MEAN_MOTION_DOT":4.555e-5,"MEAN_MOTION_DDOT":0},{"OBJECT_NAME":"STARLINK-35055","OBJECT_ID":"2025-200E","EPOCH":"2026-03-07T04:22:05.898144","MEAN_MOTION":15.05650769,"ECCENTRICITY":9.874e-5,"INCLINATION":97.603,"RA_OF_ASC_NODE":137.3281,"ARG_OF_PERICENTER":124.1525,"MEAN_ANOMALY":235.9795,"EPHEMERIS_TYPE":0,"CLASSIFICATION_TYPE":"U","NORAD_CAT_ID":65524,"ELEMENT_SET_NO":999,"REV_AT_EPOCH":2875,"BSTAR":0.00011412006,"MEAN_MOTION_DOT":1.586e-5,"MEAN_MOTION_DDOT":0},{"OBJECT_NAME":"STARLINK-35057","OBJECT_ID":"2025-200F","EPOCH":"2026-03-07T14:44:08.067264","MEAN_MOTION":15.05666033,"ECCENTRICITY":6.647e-5,"INCLINATION":97.6025,"RA_OF_ASC_NODE":137.6768,"ARG_OF_PERICENTER":41.7294,"MEAN_ANOMALY":318.3984,"EPHEMERIS_TYPE":0,"CLASSIFICATION_TYPE":"U","NORAD_CAT_ID":65525,"ELEMENT_SET_NO":999,"REV_AT_EPOCH":2881,"BSTAR":0.00058761242,"MEAN_MOTION_DOT":8.432e-5,"MEAN_MOTION_DDOT":0},{"OBJECT_NAME":"STARLINK-34674","OBJECT_ID":"2025-200G","EPOCH":"2026-03-07T15:04:06.449088","MEAN_MOTION":15.05675524,"ECCENTRICITY":2.885e-5,"INCLINATION":97.6015,"RA_OF_ASC_NODE":137.8129,"ARG_OF_PERICENTER":154.6402,"MEAN_ANOMALY":205.4839,"EPHEMERIS_TYPE":0,"CLASSIFICATION_TYPE":"U","NORAD_CAT_ID":65526,"ELEMENT_SET_NO":999,"REV_AT_EPOCH":2883,"BSTAR":0.00092727348,"MEAN_MOTION_DOT":0.00013353,"MEAN_MOTION_DDOT":0},{"OBJECT_NAME":"STARLINK-35067","OBJECT_ID":"2025-200H","EPOCH":"2026-03-07T14:24:12.214368","MEAN_MOTION":15.05663892,"ECCENTRICITY":8.634e-5,"INCLINATION":97.6016,"RA_OF_ASC_NODE":137.692,"ARG_OF_PERICENTER":51.7263,"MEAN_ANOMALY":308.4041,"EPHEMERIS_TYPE":0,"CLASSIFICATION_TYPE":"U","NORAD_CAT_ID":65527,"ELEMENT_SET_NO":999,"REV_AT_EPOCH":2881,"BSTAR":0.00055528864,"MEAN_MOTION_DOT":7.963e-5,"MEAN_MOTION_DDOT":0},{"OBJECT_NAME":"STARLINK-35063","OBJECT_ID":"2025-200J","EPOCH":"2026-03-07T14:48:08.065728","MEAN_MOTION":15.05671413,"ECCENTRICITY":6.634e-5,"INCLINATION":97.603,"RA_OF_ASC_NODE":137.8287,"ARG_OF_PERICENTER":339.4053,"MEAN_ANOMALY":20.7147,"EPHEMERIS_TYPE":0,"CLASSIFICATION_TYPE":"U","NORAD_CAT_ID":65528,"ELEMENT_SET_NO":999,"REV_AT_EPOCH":2882,"BSTAR":0.00075221782,"MEAN_MOTION_DOT":0.00010816,"MEAN_MOTION_DDOT":0},{"OBJECT_NAME":"STARLINK-35077","OBJECT_ID":"2025-200K","EPOCH":"2026-03-07T04:42:01.855584","MEAN_MOTION":15.05654459,"ECCENTRICITY":6.978e-5,"INCLINATION":97.6026,"RA_OF_ASC_NODE":137.3086,"ARG_OF_PERICENTER":116.1927,"MEAN_ANOMALY":243.9371,"EPHEMERIS_TYPE":0,"CLASSIFICATION_TYPE":"U","NORAD_CAT_ID":65529,"ELEMENT_SET_NO":999,"REV_AT_EPOCH":2875,"BSTAR":0.00037141485,"MEAN_MOTION_DOT":5.303e-5,"MEAN_MOTION_DDOT":0},{"OBJECT_NAME":"STARLINK-35152","OBJECT_ID":"2025-200L","EPOCH":"2026-03-07T15:24:01.449216","MEAN_MOTION":15.05661687,"ECCENTRICITY":5.498e-5,"INCLINATION":97.602,"RA_OF_ASC_NODE":137.7939,"ARG_OF_PERICENTER":113.1894,"MEAN_ANOMALY":246.9391,"EPHEMERIS_TYPE":0,"CLASSIFICATION_TYPE":"U","NORAD_CAT_ID":65530,"ELEMENT_SET_NO":999,"REV_AT_EPOCH":2882,"BSTAR":0.00055371327,"MEAN_MOTION_DOT":7.94e-5,"MEAN_MOTION_DDOT":0},{"OBJECT_NAME":"STARLINK-35064","OBJECT_ID":"2025-200M","EPOCH":"2026-03-07T04:30:04.015872","MEAN_MOTION":15.05664964,"ECCENTRICITY":6.418e-5,"INCLINATION":97.6025,"RA_OF_ASC_NODE":137.3206,"ARG_OF_PERICENTER":102.9063,"MEAN_ANOMALY":257.2235,"EPHEMERIS_TYPE":0,"CLASSIFICATION_TYPE":"U","NORAD_CAT_ID":65531,"ELEMENT_SET_NO":999,"REV_AT_EPOCH":2875,"BSTAR":0.0005828674,"MEAN_MOTION_DOT":8.363e-5,"MEAN_MOTION_DDOT":0},{"OBJECT_NAME":"STARLINK-35170","OBJECT_ID":"2025-200N","EPOCH":"2026-03-07T15:00:05.928768","MEAN_MOTION":15.05665537,"ECCENTRICITY":5.642e-5,"INCLINATION":97.603,"RA_OF_ASC_NODE":137.8171,"ARG_OF_PERICENTER":33.0918,"MEAN_ANOMALY":327.0344,"EPHEMERIS_TYPE":0,"CLASSIFICATION_TYPE":"U","NORAD_CAT_ID":65532,"ELEMENT_SET_NO":999,"REV_AT_EPOCH":2882,"BSTAR":0.0005497088,"MEAN_MOTION_DOT":7.883e-5,"MEAN_MOTION_DDOT":0}]
